GLOBALSTAR M084 [+]     
1 38040U 11080A   24025.55597576 -.00000118  00000+0 -79591-4 0  9993
2 38040  51.9997 156.9329 0000931  85.3952 354.9726 12.62270392558432
GLOBALSTAR M080 [+]     
1 38041U 11080B   24025.69357278 -.00000119  00000+0 -87525-4 0  9999
2 38041  52.0048 157.9425 0000798  77.5217  27.9600 12.62268593558571
GLOBALSTAR M082 [+]     
1 38042U 11080C   24026.41352359 -.00000087  00000+0  94312-4 0  9991
2 38042  52.0075 111.1432 0001255 136.8689 302.5189 12.62265304559542
GLOBALSTAR M092 [+]     
1 38043U 11080D   24025.67493888 -.00000092  00000+0  64468-4 0  9997
2 38043  52.0058 203.7441 0001196  83.2492 356.0350 12.62276022557735
GLOBALSTAR M090 [+]     
1 38044U 11080E   24026.52399873 -.00000080  00000+0  13208-3 0  9994
2 38044  51.9885 105.2684 0000889 136.1484 326.3335 12.62265485559549
GLOBALSTAR M086 [+]     
1 38045U 11080F   24025.52172168 -.00000093  00000+0  59803-4 0  9996
2 38045  51.9896 108.8332 0000505 223.4430 241.5301 12.62266592559324
GLOBALSTAR M097 [+]     
1 39072U 13005A   24026.15826419 -.00000086  00000+0  97075-4 0  9996
2 39072  52.0070  20.9231 0000223 160.8052 199.2823 12.62260261506736
GLOBALSTAR M093 [+]     
1 39073U 13005B   24026.13176730 -.00000091  00000+0  70604-4 0  9994
2 39073  51.9835  15.1203 0000193 177.6668 182.4200 12.62260213506723
